{
"type": "FeatureCollection",
"name": "discharge_nwm",
"crs": { "type": "name", "properties": { "name": "urn:ogc:def:crs:EPSG::4269" } },
"features": [
{ "type": "Feature", "properties": { "OBJECTID": 2748910, "ID": 9858583, "Shape_Length": 0.0088250464646930961 }, "geometry": { "type": "MultiLineString", "coordinates": [ [ [ -81.401816983999936, 41.62278000200007 ], [ -81.400597317999939, 41.622871802000077 ], [ -81.400292517999958, 41.623054869000043 ], [ -81.399042983999948, 41.624496402000034 ], [ -81.398738183999967, 41.625045469000042 ], [ -81.398738583999943, 41.626098002000049 ], [ -81.399409983999988, 41.627859269000055 ], [ -81.399654116999955, 41.628111002000026 ], [ -81.400081315999955, 41.629071802000055 ], [ -81.400142516999949, 41.629437802000041 ] ] ] } },
{ "type": "Feature", "properties": { "OBJECTID": 2749629, "ID": 9859063, "Shape_Length": 0.033233541565019745 }, "geometry": { "type": "MultiLineString", "coordinates": [ [ [ -81.378430383999955, 41.625871669000048 ], [ -81.379009783999948, 41.625597069000037 ], [ -81.379832983999961, 41.625551269000027 ], [ -81.38102218399996, 41.625711402000036 ], [ -81.381449116999988, 41.625642802000073 ], [ -81.381814983999959, 41.625436802000024 ], [ -81.382150383999942, 41.62504780200004 ], [ -81.382424783999966, 41.624544469000057 ], [ -81.383064983999986, 41.624109869000051 ], [ -81.383796783999969, 41.62378946900003 ], [ -81.384559116999981, 41.623629269000048 ], [ -81.385138383999958, 41.623629202000075 ], [ -81.385839783999984, 41.623789402000057 ], [ -81.387212117, 41.624818669000035 ], [ -81.387334117999956, 41.625047402000064 ], [ -81.387608583999963, 41.625459069000044 ], [ -81.387730583999939, 41.625939602000074 ], [ -81.387913583999989, 41.626168269000061 ], [ -81.388462516999937, 41.626099602000068 ], [ -81.389682182999934, 41.625756269000078 ], [ -81.390535917999955, 41.625779069000032 ], [ -81.390962916999968, 41.625939069000026 ], [ -81.391420316999984, 41.626305069000068 ], [ -81.393280716999982, 41.62708266900006 ], [ -81.393402717999948, 41.627242802000069 ], [ -81.393280783999955, 41.627791869000077 ], [ -81.393006383999989, 41.62802066900008 ], [ -81.392518516999985, 41.628020802000037 ], [ -81.391877983999962, 41.627586202000032 ], [ -81.391390116999958, 41.627586269000062 ], [ -81.391115916999979, 41.628089669000076 ], [ -81.390445116999956, 41.628227069000047 ], [ -81.390231716999949, 41.62852446900007 ], [ -81.390201316999935, 41.629005002000042 ], [ -81.390445316999944, 41.62925646900004 ], [ -81.392031182999972, 41.629965469000069 ], [ -81.394348916999945, 41.630925869000066 ], [ -81.394714982999972, 41.630994602000044 ], [ -81.395599316999949, 41.630742669000028 ], [ -81.39605658399995, 41.63039940200008 ], [ -81.396483316999934, 41.62989606900004 ], [ -81.397001717999956, 41.629690069000048 ], [ -81.398404583999934, 41.630033002000062 ], [ -81.399044916999969, 41.630010002000063 ], [ -81.399806983999952, 41.62952940200006 ], [ -81.400142516999949, 41.629437802000041 ] ] ] } },
{ "type": "Feature", "properties": { "OBJECTID": 2749813, "ID": 9848343, "Shape_Length": 0.029806145541864629 }, "geometry": { "type": "MultiLineString", "coordinates": [ [ [ -81.209252783999943, 41.70586866900004 ], [ -81.21068891799996, 41.705971669000064 ], [ -81.211463717999948, 41.705554869000025 ], [ -81.212369717999934, 41.704520002000038 ], [ -81.21340698399996, 41.70286720200005 ], [ -81.213643383999965, 41.701754802000039 ], [ -81.213183782999977, 41.700688402000026 ], [ -81.213357783999982, 41.69906220200005 ], [ -81.213603983999974, 41.698710802000051 ], [ -81.215153183999973, 41.697877069000072 ], [ -81.215875317999974, 41.697707469000079 ], [ -81.217047117999982, 41.697843202000058 ], [ -81.220017784999982, 41.699200202000043 ], [ -81.221314517999986, 41.70036340200005 ], [ -81.221465583999986, 41.701267402000042 ], [ -81.222030183999948, 41.701839269000061 ], [ -81.223123383999962, 41.702345802000025 ], [ -81.225079917999949, 41.702825469000061 ], [ -81.226957717999937, 41.703675869000051 ], [ -81.227945918999978, 41.704676802000051 ], [ -81.229147917999967, 41.707095269000035 ] ] ] } },
{ "type": "Feature", "properties": { "OBJECTID": 2749979, "ID": 9848337, "Shape_Length": 0.00041816213229024627 }, "geometry": { "type": "MultiLineString", "coordinates": [ [ [ -81.229539184999965, 41.706948802000056 ], [ -81.229456717999938, 41.706972002000043 ], [ -81.229147917999967, 41.707095269000035 ] ] ] } }
]
}
