{
"type": "FeatureCollection",
"name": "schism_alaska_subset",
"crs": { "type": "name", "properties": { "name": "urn:ogc:def:crs:OGC:1.3:CRS84" } },
"features": [
{ "type": "Feature", "properties": { }, "geometry": { "type": "Polygon", "coordinates": [ [ [ -153.214719057500503, 60.349864895198422 ], [ -154.230864542658367, 59.411386580880659 ], [ -154.366782091628522, 59.003633933970178 ], [ -154.16614190029162, 58.764160157213233 ], [ -153.486554155440842, 58.764160157213233 ], [ -153.301083333408712, 58.846883784488249 ], [ -153.295116714815549, 58.848501850547414 ], [ -153.288138804935357, 58.848805237933512 ], [ -153.279441699867334, 58.848602979676116 ], [ -153.262553135374816, 58.844052168884637 ], [ -153.25304699727721, 58.843344264983749 ], [ -153.240405856189966, 58.841928457181979 ], [ -153.223011646053891, 58.845164589300317 ], [ -153.185796126692992, 58.855682018684902 ], [ -153.087094097083707, 58.885211724264735 ], [ -152.910320380119515, 58.947911784057524 ], [ -152.731119564066546, 59.005757645672844 ], [ -152.407506352232758, 59.055917693507077 ], [ -152.189067434244976, 59.108504840430065 ], [ -152.078634425706696, 59.169586834163681 ], [ -152.033227446921273, 59.221061560671018 ], [ -152.004506774371009, 59.243006581598479 ], [ -151.983471915601825, 59.25392852749787 ], [ -151.973561260989413, 59.257720869824048 ], [ -151.955155759566367, 59.260400791734547 ], [ -151.648431112225353, 59.294885824620522 ], [ -151.39601280699506, 59.353136202750591 ], [ -151.085344123634684, 59.398442052407304 ], [ -150.645230155540844, 59.877389605921202 ], [ -149.777946747826491, 60.770562070582244 ], [ -148.92360786858552, 60.621699993138733 ], [ -148.755328998431992, 60.887062826842381 ], [ -148.651772770645181, 61.353065851882924 ], [ -148.897718811638811, 61.741401706083373 ], [ -150.26983882981375, 61.870846990816858 ], [ -151.667847904935371, 61.307760002226203 ], [ -152.625743011963152, 60.867646034132356 ], [ -153.214719057500503, 60.349864895198422 ] ] ] } }
]
}
