{
"type": "FeatureCollection",
"name": "sfincs_refine_4",
"crs": { "type": "name", "properties": { "name": "urn:ogc:def:crs:OGC:1.3:CRS84" } },
"features": [
{ "type": "Feature", "properties": { }, "geometry": { "type": "Polygon", "coordinates": [ [ [ -151.456838145250799, 61.039524539045182 ], [ -151.451480976209183, 60.993988602191436 ], [ -151.292908772577306, 60.991845734574788 ], [ -151.244694251202731, 61.019167296687037 ], [ -151.15897954653687, 61.032024502386918 ], [ -151.067907672829364, 61.060417498307494 ], [ -151.01005024717989, 61.13970360012344 ], [ -150.945764218680466, 61.187382404593833 ], [ -150.788263448856924, 61.213632532897762 ], [ -150.708977347040957, 61.243632679530819 ], [ -150.722370269645012, 61.273632826163883 ], [ -150.818799312394134, 61.262382771176483 ], [ -150.914692638239103, 61.240418378105851 ], [ -150.965585744134472, 61.240418378105851 ], [ -151.026657471208893, 61.220061135747706 ], [ -151.115050760395604, 61.154167956535808 ], [ -151.208265501719751, 61.107024868969567 ], [ -151.457909579059134, 61.061488932115815 ], [ -151.456838145250799, 61.039524539045182 ] ] ] } }
]
}
