{
"type": "FeatureCollection",
"name": "sfincs_refine_2",
"crs": { "type": "name", "properties": { "name": "urn:ogc:def:crs:OGC:1.3:CRS84" } },
"features": [
{ "type": "Feature", "properties": { }, "geometry": { "type": "Polygon", "coordinates": [ [ [ -151.764808400531052, 59.450789095140536 ], [ -151.741303821360958, 59.421458594637677 ], [ -151.684049077228678, 59.384895915928638 ], [ -151.674205279114688, 59.390520943422338 ], [ -151.676214217505304, 59.400565635375372 ], [ -151.680031200447473, 59.416235354822099 ], [ -151.69087946775673, 59.423467533028287 ], [ -151.694093769181706, 59.439940827831258 ], [ -151.69087946775673, 59.448981050588991 ], [ -151.66034360421952, 59.461235574771692 ], [ -151.631816679072898, 59.465655239231026 ], [ -151.600075452501301, 59.469271328334116 ], [ -151.557084170942318, 59.460431999415448 ], [ -151.50163747136159, 59.441146190865624 ], [ -151.478333786030561, 59.44596764300308 ], [ -151.480945405938371, 59.453400715048311 ], [ -151.493601717799208, 59.457418591829523 ], [ -151.480141830582141, 59.462641831645101 ], [ -151.450208648562096, 59.462240043966979 ], [ -151.429717476977913, 59.447373899876489 ], [ -151.434739822954413, 59.443155129256219 ], [ -151.434739822954413, 59.436123844889096 ], [ -151.412239712979613, 59.430699711234453 ], [ -151.395565524337599, 59.423266639189215 ], [ -151.367440386869106, 59.42929345436103 ], [ -151.315007094874233, 59.412619265718988 ], [ -151.287886426601062, 59.40679334438623 ], [ -151.279448885360495, 59.41603446098302 ], [ -151.30094452614, 59.424873789901689 ], [ -151.323645529953865, 59.432105968107876 ], [ -151.337507204849032, 59.440945297026545 ], [ -151.369851112937795, 59.449985519784271 ], [ -151.387931558453261, 59.460030211737305 ], [ -151.4188692096686, 59.473891886632494 ], [ -151.456034569894825, 59.490967862952651 ], [ -151.46045423435416, 59.499003616515076 ], [ -151.418668315829535, 59.500811661066621 ], [ -151.38150295560331, 59.495186633572921 ], [ -151.360810890180062, 59.468065965299729 ], [ -151.355788544203563, 59.456012334956093 ], [ -151.341324187791201, 59.455409653438913 ], [ -151.334694691102186, 59.466659708426306 ], [ -151.352574242778587, 59.501816130261922 ], [ -151.387931558453261, 59.516481380513355 ], [ -151.442574682677758, 59.514874229800867 ], [ -151.436547867505936, 59.52753054166169 ], [ -151.43795412437936, 59.53677165825848 ], [ -151.424092449484192, 59.540588641200635 ], [ -151.398378038084417, 59.531950206121024 ], [ -151.362618934731614, 59.532552887638204 ], [ -151.309984748897733, 59.510454565341533 ], [ -151.251725535570131, 59.497999147319774 ], [ -151.230029000951589, 59.501012554905678 ], [ -151.228421850239101, 59.507842945433744 ], [ -151.260765758327864, 59.515075123639932 ], [ -151.293109666416626, 59.52190551416799 ], [ -151.326257149861647, 59.528535010856992 ], [ -151.339315249400585, 59.539785065844391 ], [ -151.363824297765973, 59.546012774855271 ], [ -151.363020722409743, 59.549427970119304 ], [ -151.345342064572407, 59.551637802348971 ], [ -151.335364337232306, 59.549093147054194 ], [ -151.318355325525175, 59.547887784019828 ], [ -151.311257076545019, 59.549628863958354 ], [ -151.304292756790915, 59.545477057951096 ], [ -151.297596295488887, 59.544941341046936 ], [ -151.293444489481629, 59.55136994389688 ], [ -151.271346167184959, 59.552173519253124 ], [ -151.260765758327778, 59.546682420985462 ], [ -151.241346020551902, 59.544539553368814 ], [ -151.233979913119697, 59.546950279437546 ], [ -151.241613879003978, 59.553512811513528 ], [ -151.236658497640491, 59.556861042164535 ], [ -151.23116739937285, 59.559941414363465 ], [ -151.232908479311362, 59.567307521795691 ], [ -151.248444269532058, 59.568646814056095 ], [ -151.256881810772597, 59.570789681672743 ], [ -151.25781931535488, 59.577754001426847 ], [ -151.25447108470388, 59.587664764153836 ], [ -151.247238906497699, 59.588602268736125 ], [ -151.229962036338463, 59.586325471893431 ], [ -151.197551163636689, 59.589539773318407 ], [ -151.193935074533584, 59.587396905701759 ], [ -151.209336935528256, 59.576816496844565 ], [ -151.211078015466768, 59.569986106316499 ], [ -151.208667289398051, 59.560343202041587 ], [ -151.197819022088765, 59.558200334424939 ], [ -151.185631462519098, 59.562486069658235 ], [ -151.178131425860812, 59.572932549289391 ], [ -151.174247478305659, 59.580298656721617 ], [ -151.178399284312889, 59.583111170468463 ], [ -151.171702823010861, 59.585722790376245 ], [ -151.156167032790194, 59.586526365732489 ], [ -151.15134558065273, 59.596704986911561 ], [ -151.160988484927628, 59.607687183446878 ], [ -151.182417161094122, 59.610097909515609 ], [ -151.180006435025376, 59.621080106050925 ], [ -151.190586843882585, 59.627910496578984 ], [ -151.190318985430508, 59.639294480792422 ], [ -151.181881444189941, 59.643178428347596 ], [ -151.170899247654631, 59.635410533237248 ], [ -151.156300962016218, 59.627374779674824 ], [ -151.147863420775678, 59.626972991996702 ], [ -151.13902409185701, 59.61679437081763 ], [ -151.143443756316344, 59.608892546481243 ], [ -151.134336568945599, 59.597642491493843 ], [ -151.117461486464492, 59.595499623877195 ], [ -151.096166739524051, 59.6024639436313 ], [ -151.092416721194923, 59.615589007783264 ], [ -151.102595342374002, 59.624964053606092 ], [ -151.120274000211339, 59.62349083211965 ], [ -151.130720479842495, 59.627374779674824 ], [ -151.134336568945599, 59.633535524072684 ], [ -151.146524128515267, 59.636214108593492 ], [ -151.154024165173524, 59.64090163150491 ], [ -151.159381334215141, 59.651482040362104 ], [ -151.118666849498879, 59.662464236897414 ], [ -151.101791767017772, 59.670232132007754 ], [ -151.105541785346901, 59.680946470090994 ], [ -151.103131059278184, 59.688446506749258 ], [ -151.090005995126205, 59.693267958886715 ], [ -151.08518454298877, 59.705857306134511 ], [ -151.068309460507663, 59.715232351957347 ], [ -151.051434378026556, 59.715768068861507 ], [ -151.019827080681011, 59.708535890655327 ], [ -151.006166299624908, 59.700767995544979 ], [ -151.009112742597779, 59.688982223653419 ], [ -150.99732697070624, 59.687642931393015 ], [ -150.98714834952716, 59.702910863161627 ], [ -150.979112595964722, 59.712553767436539 ], [ -150.974559002279364, 59.732911009794684 ], [ -150.982326897389697, 59.741482480261276 ], [ -150.987684066431314, 59.753000393700752 ], [ -150.983934048102185, 59.758625421194452 ], [ -150.971076842402312, 59.7607682888111 ], [ -150.963041088839873, 59.773625494510981 ], [ -150.948576732427512, 59.781929106525489 ], [ -150.928219490069353, 59.787554134019189 ], [ -150.906255096998734, 59.78969700163583 ], [ -150.896076475819655, 59.796661321389934 ], [ -150.898755060340449, 59.809250668637738 ], [ -150.90732653080704, 59.810054243993982 ], [ -150.914826567465326, 59.799339905910742 ], [ -150.926612339356865, 59.795054170677453 ], [ -150.925808764000635, 59.802554207335717 ], [ -150.927683773165199, 59.811393536254386 ], [ -150.914022992109068, 59.821840015885542 ], [ -150.923933754836071, 59.829607910995882 ], [ -150.941612412673408, 59.81996500672097 ], [ -150.950719600044152, 59.813536403871034 ], [ -150.952058892304564, 59.798804189006582 ], [ -150.960630362771155, 59.795589887581613 ], [ -150.976434011443928, 59.795054170677453 ], [ -150.968398257881489, 59.805768508760686 ], [ -150.972683993114771, 59.810054243993982 ], [ -150.9697375501419, 59.821304298981374 ], [ -150.991969801664595, 59.814607837679354 ], [ -151.008041308789473, 59.801750631979473 ], [ -151.044737916724557, 59.800679198171146 ], [ -151.061345140753559, 59.808447093281494 ], [ -151.088666702865822, 59.82559003421467 ], [ -151.164470644804709, 59.804697074952365 ], [ -151.22688166413954, 59.774964786771385 ], [ -151.358668022563279, 59.736125311219652 ], [ -151.445989877941656, 59.711482333628211 ], [ -151.485097211945458, 59.698625127928324 ], [ -151.565454747569731, 59.696482260311683 ], [ -151.629205059164974, 59.70210728780539 ], [ -151.672598128402086, 59.723535963971855 ], [ -151.751348513313872, 59.749250375371624 ], [ -151.784027244467723, 59.746571790850808 ], [ -151.798491600880112, 59.763179014879825 ], [ -151.785098678276057, 59.805500650308609 ], [ -151.735812723093176, 59.857465190012299 ], [ -151.676348146731215, 59.950679931336445 ], [ -151.64474084938567, 60.013358809123375 ], [ -151.593312026586148, 60.066930499539552 ], [ -151.465811403395662, 60.14139514921802 ], [ -151.39188247062134, 60.190681104400909 ], [ -151.335096478780201, 60.242109927200438 ], [ -151.214024458439638, 60.289253014766672 ], [ -151.172238539915014, 60.356753344691057 ], [ -151.223667362714536, 60.395324961790706 ], [ -151.242953171264361, 60.486396835498205 ], [ -151.204381554164712, 60.515325548322942 ], [ -151.151881297556884, 60.554968599230918 ], [ -151.180810010381606, 60.599968819180503 ], [ -151.24509603888103, 60.610683157263736 ], [ -151.267596148855802, 60.643897605321769 ], [ -151.191524348464839, 60.662111980063273 ], [ -151.17759570895663, 60.695326428121298 ], [ -151.144381260898598, 60.70496933239621 ], [ -151.116523981882182, 60.741398081879211 ], [ -151.038309313874578, 60.774612529937244 ], [ -150.863665603117823, 60.842112859861629 ], [ -150.575449908678792, 60.955684843543921 ], [ -150.50366384352111, 60.987827857793633 ], [ -150.53044968872922, 61.026399474893275 ], [ -150.687950458552763, 60.989970725410274 ], [ -151.044737916724529, 60.830327087970069 ], [ -151.278310486939063, 60.806755544186949 ], [ -151.440096991995915, 60.743540949495859 ], [ -151.431525521529323, 60.663183413871593 ], [ -151.354382287330026, 60.548539996380974 ], [ -151.314739236422042, 60.469253894565028 ], [ -151.343667949246793, 60.409253601298914 ], [ -151.409025411554524, 60.396396395599027 ], [ -151.427239786296013, 60.295681617616616 ], [ -151.451882763887454, 60.237824191967142 ], [ -151.71652691454338, 60.078180554526931 ], [ -151.847241839158784, 59.853179454778981 ], [ -151.899742095766641, 59.771750485346388 ], [ -151.840813236308833, 59.659249935472417 ], [ -151.594383460394425, 59.605678245056239 ], [ -151.461525668162295, 59.587463870314735 ], [ -151.449739896270756, 59.572463796998207 ], [ -151.576169085652936, 59.524249275623646 ], [ -151.673669562210364, 59.503892033265501 ], [ -151.780812943042719, 59.4674632837825 ], [ -151.764808400531052, 59.450789095140536 ] ] ] } }
]
}
