{
"type": "FeatureCollection",
"name": "sfincs_refine_7",
"crs": { "type": "name", "properties": { "name": "urn:ogc:def:crs:OGC:1.3:CRS84" } },
"features": [
{ "type": "Feature", "properties": { }, "geometry": { "type": "Polygon", "coordinates": [ [ [ -152.006483688920753, 60.441664474000646 ], [ -152.036483835553838, 60.398807121667701 ], [ -152.088984092161667, 60.368806975034644 ], [ -152.101841297861569, 60.315235284618467 ], [ -152.011840857962397, 60.335592526976612 ], [ -151.949697697079614, 60.357021203143084 ], [ -151.943269094229663, 60.381664180734525 ], [ -151.947554829462973, 60.402021423092677 ], [ -151.917554682829916, 60.423450099259149 ], [ -151.883268800963549, 60.42452153306747 ], [ -151.872554462880316, 60.451307378275558 ], [ -151.847911485288876, 60.467378885400414 ], [ -151.812554169614202, 60.484521826333591 ], [ -151.840411448630618, 60.505950502500056 ], [ -151.923983285679839, 60.526307744858208 ], [ -151.972197807054414, 60.514521972966648 ], [ -152.006483688920753, 60.441664474000646 ] ] ] } }
]
}
