{
"type": "FeatureCollection",
"name": "sfincs_refine_3",
"crs": { "type": "name", "properties": { "name": "urn:ogc:def:crs:OGC:1.3:CRS84" } },
"features": [
{ "type": "Feature", "properties": { }, "geometry": { "type": "Polygon", "coordinates": [ [ [ -149.662052587082854, 60.936131176542013 ], [ -149.667409756124471, 60.918988235608836 ], [ -149.627766705216516, 60.90291672848398 ], [ -149.583302202171069, 60.915773934183861 ], [ -149.537230548413163, 60.919523952512996 ], [ -149.430087167580808, 60.890059522784099 ], [ -149.374908326452157, 60.888988088975772 ], [ -149.213657538299458, 60.88095233541334 ], [ -149.131692851962725, 60.866487979000972 ], [ -149.064192522038326, 60.838094983080396 ], [ -148.996156475209801, 60.807559119543178 ], [ -148.961870593343434, 60.817202023818091 ], [ -148.963477744055922, 60.842380718313692 ], [ -149.015442283759626, 60.883630919934149 ], [ -149.124192815304468, 60.936131176542006 ], [ -149.086156915108972, 60.960774154133446 ], [ -149.116692778646183, 60.988095716245695 ], [ -149.190621711420505, 60.95595270199599 ], [ -149.350265348860717, 60.953274117475182 ], [ -149.514194721534238, 61.013810127645456 ], [ -149.62455240379154, 61.010595826220488 ], [ -149.688838432290879, 61.085596192803123 ], [ -149.749374442461146, 61.143989335356757 ], [ -149.784196041231667, 61.147739353685886 ], [ -149.793303228602412, 61.168096596044037 ], [ -149.765445949585995, 61.180953801743918 ], [ -149.717767145115602, 61.213096815993623 ], [ -149.662588303986951, 61.244168396435008 ], [ -149.596159407870914, 61.263454204984825 ], [ -149.51365900463, 61.287025748767945 ], [ -149.475087387530351, 61.342740306800764 ], [ -149.40330132237267, 61.389883394367004 ], [ -149.304729412006907, 61.437026481933238 ], [ -149.255443456824025, 61.45738372429139 ], [ -149.136514304100103, 61.465419477853828 ], [ -149.000442210442998, 61.495419624486892 ], [ -148.961870593343349, 61.543634145861454 ], [ -148.973656365234916, 61.589170082715199 ], [ -149.030442357076083, 61.632027435048144 ], [ -149.070085407984038, 61.666313316914497 ], [ -149.137050021004256, 61.677563371901897 ], [ -149.200800332599528, 61.674884787381089 ], [ -149.245800552549099, 61.666849033818657 ], [ -149.326158088173372, 61.641670339323056 ], [ -149.410801359030927, 61.588098648906879 ], [ -149.47883740585948, 61.551669899423878 ], [ -149.57258786408778, 61.538812693723997 ], [ -149.639016760203845, 61.519526885174173 ], [ -149.672900854392083, 61.520598318982479 ], [ -149.729686846233221, 61.506937537926355 ], [ -149.80093719448675, 61.484437427951555 ], [ -149.846339202114478, 61.461669459524678 ], [ -150.012411442404641, 61.431669312891614 ], [ -150.037054419996082, 61.431669312891614 ], [ -150.063840265204163, 61.431669312891614 ], [ -150.141519216307614, 61.43595504812491 ], [ -150.156519289624157, 61.34809747584238 ], [ -150.137769197978486, 61.280061429013834 ], [ -150.119019106332843, 61.236132642872562 ], [ -150.111519069674557, 61.150417938206679 ], [ -150.061161680683369, 61.116132056340327 ], [ -149.91008951370975, 61.059346064499181 ], [ -149.849017786635301, 60.93613117654197 ], [ -149.662052587082854, 60.936131176542013 ] ] ] } }
]
}
