{
"type": "FeatureCollection",
"name": "sfincs_refine_5",
"crs": { "type": "name", "properties": { "name": "urn:ogc:def:crs:OGC:1.3:CRS84" } },
"features": [
{ "type": "Feature", "properties": { }, "geometry": { "type": "Polygon", "coordinates": [ [ [ -151.778268287747863, 60.858452225438505 ], [ -151.812554169614202, 60.848809321163593 ], [ -151.799696963914329, 60.805951968830655 ], [ -151.754696743964729, 60.754523146031126 ], [ -151.771839684897913, 60.742737374139566 ], [ -151.8446971838639, 60.780237557430887 ], [ -151.817911338655819, 60.709522926081533 ], [ -151.731125200181623, 60.690237117531709 ], [ -151.683982112615382, 60.713808661314829 ], [ -151.694696450698615, 60.767380351731006 ], [ -151.778268287747863, 60.858452225438505 ] ] ] } }
]
}
