{
"type": "FeatureCollection",
"name": "sfincs_refine_6",
"crs": { "type": "name", "properties": { "name": "urn:ogc:def:crs:OGC:1.3:CRS84" } },
"features": [
{ "type": "Feature", "properties": { }, "geometry": { "type": "Polygon", "coordinates": [ [ [ -152.711487134797636, 59.972376465954923 ], [ -152.664344047231424, 59.941304885513539 ], [ -152.58184364399051, 60.006662347821276 ], [ -152.553986364974094, 60.080591280595605 ], [ -152.532557688807628, 60.123448632928543 ], [ -152.558272100207375, 60.186663227619633 ], [ -152.538986291657551, 60.26273502801061 ], [ -152.652558275339857, 60.268092197052226 ], [ -152.754344487130595, 60.280949402752107 ], [ -152.836844890371509, 60.288449439410371 ], [ -152.930059631695656, 60.314163850810139 ], [ -153.021131505403162, 60.308806681768516 ], [ -153.0329172772947, 60.289520873218699 ], [ -153.026488674444778, 60.26380646181893 ], [ -152.980417020686872, 60.253092123735698 ], [ -152.941845403587223, 60.244520653269106 ], [ -152.907559521720856, 60.211306205211073 ], [ -152.81648764801335, 60.171663154303104 ], [ -152.723272906689203, 60.149163044328311 ], [ -152.6225581287068, 60.083805582020574 ], [ -152.605415187773616, 60.070948376320693 ], [ -152.696487061481122, 60.00130517877966 ], [ -152.711487134797636, 59.972376465954923 ] ] ] } }
]
}
