{
  "type": "FeatureCollection",
  "name": "nwm_reaches",
  "crs": {
    "type": "name",
    "properties": {
      "name": "urn:ogc:def:crs:EPSG::4269"
    }
  },
  "features": [
    {
      "type": "Feature",
      "properties": {
        "OBJECTID": 1293149,
        "ID": 2666131,
        "Shape_Length": 0.027200442634896346
      },
      "geometry": {
        "type": "MultiLineString",
        "coordinates": [
          [
            [
              -123.63280811899995,
              38.930869673000075
            ],
            [
              -123.63321838499996,
              38.931029806000026
            ],
            [
              -123.63418551899997,
              38.93183100600004
            ],
            [
              -123.63600258499997,
              38.932883606000075
            ],
            [
              -123.63629571899997,
              38.93315820600003
            ],
            [
              -123.63670611899994,
              38.933844806000025
            ],
            [
              -123.63738018499998,
              38.934462806000056
            ],
            [
              -123.637761319,
              38.93503487300006
            ],
            [
              -123.63884591899995,
              38.93592747300005
            ],
            [
              -123.63957871899999,
              38.93627080600004
            ],
            [
              -123.63984251899996,
              38.936545273000036
            ],
            [
              -123.639989185,
              38.937140406000026
            ],
            [
              -123.64034098499997,
              38.93775827300004
            ],
            [
              -123.64034111899997,
              38.938261873000044
            ],
            [
              -123.64019471899996,
              38.93869667300004
            ],
            [
              -123.640165519,
              38.93936060600004
            ],
            [
              -123.64054651899994,
              38.93954360600003
            ],
            [
              -123.64089831899997,
              38.93947487300005
            ],
            [
              -123.64133791899997,
              38.93949767300006
            ],
            [
              -123.64377071899997,
              38.94064180600003
            ],
            [
              -123.64406378499996,
              38.94087060600003
            ],
            [
              -123.64412251899995,
              38.94132827300007
            ],
            [
              -123.64453298499996,
              38.94160287300008
            ],
            [
              -123.64523638499998,
              38.94178587300007
            ],
            [
              -123.64623291899994,
              38.94190020600007
            ],
            [
              -123.64667258499998,
              38.94208327300004
            ],
            [
              -123.64893011899994,
              38.94393667300005
            ],
            [
              -123.65001498499998,
              38.94498940600005
            ],
            [
              -123.650425585,
              38.94574460600006
            ],
            [
              -123.65039658499995,
              38.94643127300003
            ],
            [
              -123.64998671899997,
              38.94755280600003
            ],
            [
              -123.64992818499996,
              38.94798767300006
            ]
          ]
        ]
      }
    },
    {
      "type": "Feature",
      "properties": {
        "OBJECTID": 1293155,
        "ID": 2666047,
        "Shape_Length": 0.019946978727576063
      },
      "geometry": {
        "type": "MultiLineString",
        "coordinates": [
          [
            [
              -123.66145618499996,
              38.96391480600005
            ],
            [
              -123.66195478499998,
              38.96437240600005
            ],
            [
              -123.66286398499994,
              38.96501307300008
            ],
            [
              -123.66309871799996,
              38.965356273000054
            ],
            [
              -123.66315771799998,
              38.965951406000045
            ],
            [
              -123.66342158499998,
              38.96615720600005
            ],
            [
              -123.66441858499996,
              38.96631707300003
            ],
            [
              -123.66465318499996,
              38.96643147300006
            ],
            [
              -123.66521058499995,
              38.96714080600003
            ],
            [
              -123.66570931799998,
              38.96746107300004
            ],
            [
              -123.66623711799997,
              38.96762120600005
            ],
            [
              -123.66694078499995,
              38.96755220600005
            ],
            [
              -123.66767351799996,
              38.967277273000036
            ],
            [
              -123.668406318,
              38.96688800600003
            ],
            [
              -123.668816785,
              38.96691067300003
            ],
            [
              -123.669373985,
              38.96716220600007
            ],
            [
              -123.66975538499997,
              38.96764280600007
            ],
            [
              -123.66987298499998,
              38.96800887300003
            ],
            [
              -123.66996091799996,
              38.96805467300004
            ],
            [
              -123.67025458499995,
              38.968855606000034
            ],
            [
              -123.67057731799997,
              38.96910727300008
            ],
            [
              -123.67128118499994,
              38.96935880600006
            ],
            [
              -123.67169191799996,
              38.969679073000066
            ],
            [
              -123.67201471799996,
              38.97009087300006
            ],
            [
              -123.67224918499994,
              38.97009087300006
            ],
            [
              -123.67268898499998,
              38.969953273000044
            ],
            [
              -123.67307018499997,
              38.970090406000054
            ],
            [
              -123.67310051799996,
              38.97148667300007
            ],
            [
              -123.67339398499996,
              38.97185267300006
            ],
            [
              -123.673687385,
              38.972058606000076
            ],
            [
              -123.67488991799996,
              38.97244720600003
            ],
            [
              -123.67585758499996,
              38.97260700600003
            ],
            [
              -123.67615091799996,
              38.97276707300006
            ],
            [
              -123.67618031799998,
              38.972858606000045
            ]
          ]
        ]
      }
    },
    {
      "type": "Feature",
      "properties": {
        "OBJECTID": 1293161,
        "ID": 2665943,
        "Shape_Length": 0.004443214883845498
      },
      "geometry": {
        "type": "MultiLineString",
        "coordinates": [
          [
            [
              -123.64610278499998,
              38.99991407300007
            ],
            [
              -123.64569218499997,
              38.99944047300005
            ],
            [
              -123.64569258499995,
              38.99836500600003
            ],
            [
              -123.64645631899998,
              38.996579473000054
            ],
            [
              -123.64669098499996,
              38.996281873000044
            ],
            [
              -123.64704298499998,
              38.99605287300005
            ]
          ]
        ]
      }
    },
    {
      "type": "Feature",
      "properties": {
        "OBJECTID": 1293164,
        "ID": 2664809,
        "Shape_Length": 0.03643137835195553
      },
      "geometry": {
        "type": "MultiLineString",
        "coordinates": [
          [
            [
              -123.67584658499999,
              39.09069700600003
            ],
            [
              -123.67646391799997,
              39.091314606000026
            ],
            [
              -123.677345318,
              39.09168040600008
            ],
            [
              -123.67813858499994,
              39.092229273000044
            ],
            [
              -123.67840311799995,
              39.092503873000055
            ],
            [
              -123.67875558499998,
              39.092618206000054
            ],
            [
              -123.67946038499997,
              39.09257220600006
            ],
            [
              -123.68013578499995,
              39.09241160600004
            ],
            [
              -123.68084098499997,
              39.09284620600005
            ],
            [
              -123.68148718499998,
              39.092868673000055
            ],
            [
              -123.68181018499996,
              39.09277700600006
            ],
            [
              -123.68257351799997,
              39.09220447300004
            ],
            [
              -123.68339571799999,
              39.09197520600003
            ],
            [
              -123.68413011799998,
              39.092157873000076
            ],
            [
              -123.68421831799998,
              39.092249406000064
            ],
            [
              -123.68418938499997,
              39.09309627300007
            ],
            [
              -123.68445431799995,
              39.093576806000044
            ],
            [
              -123.684572318,
              39.09419467300006
            ],
            [
              -123.68466038499997,
              39.09424040600004
            ],
            [
              -123.684895918,
              39.094881206000025
            ],
            [
              -123.68521911799996,
              39.09506407300006
            ],
            [
              -123.68612958499995,
              39.095017873000074
            ],
            [
              -123.68677611799995,
              39.09533800600008
            ],
            [
              -123.68674698499996,
              39.095681273000025
            ],
            [
              -123.68651231799998,
              39.095978873000035
            ],
            [
              -123.68654178499997,
              39.09625360600006
            ],
            [
              -123.68727671799996,
              39.09682540600005
            ],
            [
              -123.68783538499997,
              39.09769487300008
            ],
            [
              -123.68880538499997,
              39.09840380600008
            ],
            [
              -123.68892331799998,
              39.098884406000025
            ],
            [
              -123.68912918499996,
              39.09925047300004
            ],
            [
              -123.68965831799994,
              39.09963920600006
            ],
            [
              -123.69121511799995,
              39.09968427300004
            ],
            [
              -123.69200918499996,
              39.10078227300005
            ],
            [
              -123.69271458499998,
              39.101239673000066
            ],
            [
              -123.69321411799996,
              39.10139960600003
            ],
            [
              -123.69388978499995,
              39.101490873000046
            ],
            [
              -123.69430138499996,
              39.10176520600004
            ],
            [
              -123.69453691799998,
              39.102383073000055
            ],
            [
              -123.694801585,
              39.10274907300004
            ],
            [
              -123.69538911799998,
              39.102748673000065
            ],
            [
              -123.695770918,
              39.10263407300005
            ],
            [
              -123.69582878499995,
              39.10178720600004
            ],
            [
              -123.69606351799996,
              39.101581073000034
            ],
            [
              -123.69644531799997,
              39.10146647300007
            ],
            [
              -123.69729738499996,
              39.10167187300004
            ],
            [
              -123.69741571799995,
              39.102495806000036
            ],
            [
              -123.697503918,
              39.102564406000056
            ],
            [
              -123.69768078499999,
              39.10320507300003
            ],
            [
              -123.69715271799998,
              39.10389200600008
            ],
            [
              -123.69703551799995,
              39.104189673000064
            ],
            [
              -123.69706531799994,
              39.10462440600003
            ],
            [
              -123.69724171799999,
              39.104830406000076
            ],
            [
              -123.697682585,
              39.10496740600007
            ],
            [
              -123.699209785,
              39.104760473000056
            ],
            [
              -123.70003191799998,
              39.10430227300003
            ]
          ]
        ]
      }
    },
    {
      "type": "Feature",
      "properties": {
        "OBJECTID": 1293174,
        "ID": 2664713,
        "Shape_Length": 0.012811663074782506
      },
      "geometry": {
        "type": "MultiLineString",
        "coordinates": [
          [
            [
              -123.65380338499995,
              39.12478300600003
            ],
            [
              -123.65436171899995,
              39.124897273000045
            ],
            [
              -123.65477318499995,
              39.12508040600005
            ],
            [
              -123.65497898499996,
              39.12549227300008
            ],
            [
              -123.65527298499995,
              39.12572100600005
            ],
            [
              -123.65677178499999,
              39.12624707300006
            ],
            [
              -123.65782991799995,
              39.126956273000076
            ],
            [
              -123.65806511799997,
              39.12741400600004
            ],
            [
              -123.65853551799995,
              39.12771140600006
            ],
            [
              -123.66006371799995,
              39.12800860600004
            ],
            [
              -123.66129778499999,
              39.12803100600007
            ],
            [
              -123.66235578499999,
              39.128213806000076
            ],
            [
              -123.66350211799994,
              39.12878567300004
            ],
            [
              -123.664677585,
              39.12887680600005
            ],
            [
              -123.66535351799996,
              39.129059606000055
            ]
          ]
        ]
      }
    },
    {
      "type": "Feature",
      "properties": {
        "OBJECTID": 1293184,
        "ID": 2664573,
        "Shape_Length": 0.010634495075694186
      },
      "geometry": {
        "type": "MultiLineString",
        "coordinates": [
          [
            [
              -123.63905898499996,
              39.15703340600004
            ],
            [
              -123.63888291899997,
              39.157926006000025
            ],
            [
              -123.63867711899996,
              39.158315206000054
            ],
            [
              -123.63814798499999,
              39.158910406000075
            ],
            [
              -123.63817751899995,
              39.15955120600006
            ],
            [
              -123.63861891899995,
              39.161336206000044
            ],
            [
              -123.63955991899996,
              39.162686473000065
            ],
            [
              -123.63961871899994,
              39.16289260600007
            ],
            [
              -123.64008918499997,
              39.16337307300006
            ],
            [
              -123.64032451899999,
              39.163922273000026
            ],
            [
              -123.640354119,
              39.16440300600004
            ],
            [
              -123.64061871899997,
              39.16479207300006
            ],
            [
              -123.641177385,
              39.16522680600008
            ],
            [
              -123.64226518499999,
              39.16563860600007
            ],
            [
              -123.64229471899995,
              39.165684406000025
            ]
          ]
        ]
      }
    },
    {
      "type": "Feature",
      "properties": {
        "OBJECTID": 1293197,
        "ID": 2664269,
        "Shape_Length": 0.010746717931773779
      },
      "geometry": {
        "type": "MultiLineString",
        "coordinates": [
          [
            [
              -123.67007498499999,
              39.26193987200003
            ],
            [
              -123.67036938499996,
              39.26193980600004
            ],
            [
              -123.67092871799997,
              39.26171067200005
            ],
            [
              -123.67125238499995,
              39.26143587200005
            ],
            [
              -123.67148758499997,
              39.26095520600006
            ],
            [
              -123.67148691799997,
              39.25985667200007
            ],
            [
              -123.67136891799998,
              39.25946767200003
            ],
            [
              -123.67136811799998,
              39.25836907200005
            ],
            [
              -123.67151511799995,
              39.25800287200008
            ],
            [
              -123.67248598499998,
              39.25720160600008
            ],
            [
              -123.67360371799998,
              39.25585087200005
            ],
            [
              -123.67416231799996,
              39.25470620600004
            ],
            [
              -123.67439718499998,
              39.253950872000075
            ],
            [
              -123.674603118,
              39.25372200600003
            ],
            [
              -123.67507398499998,
              39.25353867200005
            ]
          ]
        ]
      }
    },
    {
      "type": "Feature",
      "properties": {
        "OBJECTID": 1293481,
        "ID": 2664215,
        "Shape_Length": 0.01763257670149601
      },
      "geometry": {
        "type": "MultiLineString",
        "coordinates": [
          [
            [
              -123.69993758499999,
              39.27160620600006
            ],
            [
              -123.70046798499999,
              39.27183480600007
            ],
            [
              -123.70114518499997,
              39.271834272000035
            ],
            [
              -123.70155751799996,
              39.271994206000045
            ],
            [
              -123.70261731799997,
              39.271696072000054
            ],
            [
              -123.703441785,
              39.27183287200006
            ],
            [
              -123.70464898499995,
              39.27174047200003
            ],
            [
              -123.70603258499995,
              39.27151080600004
            ],
            [
              -123.70859411799995,
              39.27141747200005
            ],
            [
              -123.70974231799994,
              39.27127927200007
            ],
            [
              -123.71109631799999,
              39.27095807200004
            ],
            [
              -123.71203818499998,
              39.27063687200007
            ],
            [
              -123.71336211799996,
              39.269812072000036
            ],
            [
              -123.714597385,
              39.26878127200007
            ],
            [
              -123.71512638499996,
              39.26809427200004
            ],
            [
              -123.71547931799995,
              39.26777360600005
            ],
            [
              -123.71618558499995,
              39.26747560600006
            ]
          ]
        ]
      }
    },
    {
      "type": "Feature",
      "properties": {
        "OBJECTID": 1293489,
        "ID": 2664367,
        "Shape_Length": 0.021885175085844245
      },
      "geometry": {
        "type": "MultiLineString",
        "coordinates": [
          [
            [
              -123.68500691799994,
              39.227007472000025
            ],
            [
              -123.68612511799995,
              39.22725860600008
            ],
            [
              -123.68724351799995,
              39.22741820600004
            ],
            [
              -123.68853858499995,
              39.22782947200005
            ],
            [
              -123.68962811799997,
              39.22851560600003
            ],
            [
              -123.69033451799999,
              39.22876680600007
            ],
            [
              -123.69195278499996,
              39.228651472000024
            ],
            [
              -123.69474851799998,
              39.22883300600006
            ],
            [
              -123.69536638499994,
              39.22869540600004
            ],
            [
              -123.69792538499996,
              39.22766387200005
            ],
            [
              -123.69792471799997,
              39.22709167200003
            ],
            [
              -123.698130118,
              39.22656507200003
            ],
            [
              -123.69848291799997,
              39.22603847200003
            ],
            [
              -123.69962898499995,
              39.22480187200006
            ],
            [
              -123.70092271799996,
              39.22377120600004
            ],
            [
              -123.70171631799997,
              39.22301547200004
            ],
            [
              -123.70253938499997,
              39.22237420600004
            ],
            [
              -123.70309811799996,
              39.22205327200004
            ],
            [
              -123.70359818499998,
              39.22200720600006
            ]
          ]
        ]
      }
    },
    {
      "type": "Feature",
      "properties": {
        "OBJECTID": 1293491,
        "ID": 2664397,
        "Shape_Length": 0.020627990418798075
      },
      "geometry": {
        "type": "MultiLineString",
        "coordinates": [
          [
            [
              -123.68661211799997,
              39.21197007200004
            ],
            [
              -123.68749511799996,
              39.21249600600004
            ],
            [
              -123.68778951799999,
              39.21281620600007
            ],
            [
              -123.68805518499994,
              39.21370867200005
            ],
            [
              -123.68832031799997,
              39.21405180600004
            ],
            [
              -123.690233918,
              39.215538406000064
            ],
            [
              -123.69046991799996,
              39.21611040600004
            ],
            [
              -123.69094131799994,
              39.21672807200008
            ],
            [
              -123.69179498499994,
              39.21736847200003
            ],
            [
              -123.69347311799999,
              39.21837447200005
            ],
            [
              -123.69535698499999,
              39.219334606000075
            ],
            [
              -123.69674031799997,
              39.21974580600005
            ],
            [
              -123.69877051799995,
              39.21979040600007
            ],
            [
              -123.70065418499996,
              39.220361206000064
            ],
            [
              -123.70297991799998,
              39.221549872000026
            ],
            [
              -123.70356871799999,
              39.22191567200008
            ],
            [
              -123.70359818499998,
              39.22200720600006
            ]
          ]
        ]
      }
    },
    {
      "type": "Feature",
      "properties": {
        "OBJECTID": 1293510,
        "ID": 2664659,
        "Shape_Length": 0.017708670122275512
      },
      "geometry": {
        "type": "MultiLineString",
        "coordinates": [
          [
            [
              -123.64446218499995,
              39.13565620600008
            ],
            [
              -123.644344919,
              39.136136806000025
            ],
            [
              -123.64390411899996,
              39.136526006000054
            ],
            [
              -123.64378658499999,
              39.136823606000064
            ],
            [
              -123.64384551899997,
              39.13698367300003
            ],
            [
              -123.64440391899996,
              39.13744140600005
            ],
            [
              -123.64502131899997,
              39.13835667300003
            ],
            [
              -123.64546231899999,
              39.13870007300005
            ],
            [
              -123.64725531899995,
              39.13952367300004
            ],
            [
              -123.64787258499996,
              39.13993547300004
            ],
            [
              -123.64799031899997,
              39.140095673000076
            ],
            [
              -123.64987151899999,
              39.14107960600006
            ],
            [
              -123.65045938499998,
              39.141239606000056
            ],
            [
              -123.65251671899995,
              39.14114760600006
            ],
            [
              -123.65516158499997,
              39.14073500600006
            ],
            [
              -123.657101518,
              39.14094047300006
            ],
            [
              -123.65774811799997,
              39.14116927300006
            ],
            [
              -123.65833618499994,
              39.14160400600008
            ]
          ]
        ]
      }
    },
    {
      "type": "Feature",
      "properties": {
        "OBJECTID": 1293542,
        "ID": 2665573,
        "Shape_Length": 0.01676150519909476
      },
      "geometry": {
        "type": "MultiLineString",
        "coordinates": [
          [
            [
              -123.66880398499995,
              39.244179606000046
            ],
            [
              -123.66856938499996,
              39.24541560600005
            ],
            [
              -123.66839311799998,
              39.24575900600007
            ],
            [
              -123.668334518,
              39.24642260600007
            ],
            [
              -123.66857051799997,
              39.247200672000076
            ],
            [
              -123.66921871799997,
              39.24816167200004
            ],
            [
              -123.67045578499994,
              39.24953447200005
            ],
            [
              -123.67139798499994,
              39.24990020600006
            ],
            [
              -123.67277578499994,
              39.25024400600006
            ],
            [
              -123.67339411799998,
              39.25065567200005
            ],
            [
              -123.67521958499998,
              39.251318672000025
            ],
            [
              -123.67695651799994,
              39.251409472000034
            ],
            [
              -123.67722138499994,
              39.25156960600003
            ],
            [
              -123.67725138499998,
              39.25232480600005
            ],
            [
              -123.67692798499996,
              39.25271407200006
            ],
            [
              -123.67660431799999,
              39.25294307200005
            ],
            [
              -123.67583911799994,
              39.25314927200003
            ],
            [
              -123.67513271799999,
              39.25324107200004
            ],
            [
              -123.67507398499998,
              39.25353867200005
            ]
          ]
        ]
      }
    },
    {
      "type": "Feature",
      "properties": {
        "OBJECTID": 1293549,
        "ID": 2664447,
        "Shape_Length": 0.02140840663409764
      },
      "geometry": {
        "type": "MultiLineString",
        "coordinates": [
          [
            [
              -123.66789578499998,
              39.203121072000044
            ],
            [
              -123.66836638499996,
              39.20296080600008
            ],
            [
              -123.66951358499995,
              39.20289167200008
            ],
            [
              -123.67124931799998,
              39.203234406000036
            ],
            [
              -123.67248538499996,
              39.20394327200006
            ],
            [
              -123.67304458499996,
              39.20458387200006
            ],
            [
              -123.67357418499995,
              39.20472100600006
            ],
            [
              -123.67439778499994,
              39.204743472000075
            ],
            [
              -123.676574185,
              39.20405600600003
            ],
            [
              -123.67892658499994,
              39.20293347200004
            ],
            [
              -123.68010271799994,
              39.202132006000056
            ],
            [
              -123.68122038499996,
              39.20197120600005
            ],
            [
              -123.68295551799997,
              39.201466872000026
            ],
            [
              -123.68430851799997,
              39.20135180600005
            ],
            [
              -123.68763118499999,
              39.199976872000036
            ],
            [
              -123.68771931799995,
              39.19986240600008
            ]
          ]
        ]
      }
    },
    {
      "type": "Feature",
      "properties": {
        "OBJECTID": 1293552,
        "ID": 2664465,
        "Shape_Length": 0.019391472802982722
      },
      "geometry": {
        "type": "MultiLineString",
        "coordinates": [
          [
            [
              -123.66941991799996,
              39.19414887200003
            ],
            [
              -123.67306751799998,
              39.194994406000035
            ],
            [
              -123.67386178499999,
              39.195337272000074
            ],
            [
              -123.67589218499995,
              39.19645787200005
            ],
            [
              -123.68045251799998,
              39.19812667200006
            ],
            [
              -123.68159978499995,
              39.19826340600008
            ],
            [
              -123.683864718,
              39.19835380600006
            ],
            [
              -123.68721891799999,
              39.199427806000074
            ],
            [
              -123.68771931799995,
              39.19986240600008
            ]
          ]
        ]
      }
    },
    {
      "type": "Feature",
      "properties": {
        "OBJECTID": 1293573,
        "ID": 2664753,
        "Shape_Length": 0.027787503575210228
      },
      "geometry": {
        "type": "MultiLineString",
        "coordinates": [
          [
            [
              -123.65106478499996,
              39.10816747300004
            ],
            [
              -123.652034319,
              39.10844187300006
            ],
            [
              -123.65506078499999,
              39.10990607300005
            ],
            [
              -123.65564851899995,
              39.11029500600006
            ],
            [
              -123.65676518499998,
              39.11139327300003
            ],
            [
              -123.65732391799997,
              39.112354406000065
            ],
            [
              -123.65870551799998,
              39.11402480600003
            ],
            [
              -123.66096851799995,
              39.11571787300005
            ],
            [
              -123.66146838499998,
              39.11651867300003
            ],
            [
              -123.66220331799997,
              39.11715940600004
            ],
            [
              -123.66232091799998,
              39.11745687300004
            ],
            [
              -123.66232111799997,
              39.11809767300008
            ],
            [
              -123.66305711799998,
              39.12056927300006
            ],
            [
              -123.66340998499999,
              39.12109560600004
            ],
            [
              -123.66385118499994,
              39.12210247300004
            ],
            [
              -123.66402818499995,
              39.123498606000055
            ],
            [
              -123.66429318499996,
              39.124230873000045
            ],
            [
              -123.66467538499995,
              39.124917406000066
            ],
            [
              -123.664939985,
              39.12519187300006
            ],
            [
              -123.66502838499997,
              39.12551227300003
            ],
            [
              -123.665028985,
              39.12658807300005
            ],
            [
              -123.665705318,
              39.127617806000046
            ],
            [
              -123.66585251799995,
              39.12791520600007
            ],
            [
              -123.66599978499994,
              39.12864760600007
            ],
            [
              -123.66579418499998,
              39.12885367300004
            ],
            [
              -123.66535351799996,
              39.129059606000055
            ]
          ]
        ]
      }
    },
    {
      "type": "Feature",
      "properties": {
        "OBJECTID": 1293588,
        "ID": 2664899,
        "Shape_Length": 0.027630264456202407
      },
      "geometry": {
        "type": "MultiLineString",
        "coordinates": [
          [
            [
              -123.67645178499998,
              39.074240606000046
            ],
            [
              -123.677479985,
              39.07501840600003
            ],
            [
              -123.678096918,
              39.075315673000034
            ],
            [
              -123.67941851799998,
              39.07568127300004
            ],
            [
              -123.68032858499998,
              39.07552067300003
            ],
            [
              -123.68068091799995,
              39.075383206000026
            ],
            [
              -123.68088651799997,
              39.07540600600004
            ],
            [
              -123.68179738499998,
              39.07620660600003
            ],
            [
              -123.68282518499996,
              39.076389273000075
            ],
            [
              -123.68755251799996,
              39.07595207300005
            ],
            [
              -123.68805171799994,
              39.075997673000074
            ],
            [
              -123.68890338499995,
              39.07620320600006
            ],
            [
              -123.689930985,
              39.076111006000076
            ],
            [
              -123.69087038499998,
              39.075835873000074
            ],
            [
              -123.69151618499995,
              39.075561006000044
            ],
            [
              -123.69198598499997,
              39.07558347300005
            ],
            [
              -123.69222098499995,
              39.075674873000025
            ],
            [
              -123.69248538499994,
              39.075857873000075
            ],
            [
              -123.69348338499998,
              39.07555980600006
            ],
            [
              -123.69468718499996,
              39.075376006000056
            ],
            [
              -123.69636091799998,
              39.07537507300003
            ],
            [
              -123.69709531799998,
              39.075672206000036
            ],
            [
              -123.697800385,
              39.07615240600006
            ],
            [
              -123.69824111799994,
              39.07628947300003
            ],
            [
              -123.69923931799997,
              39.07612867300003
            ],
            [
              -123.69965051799994,
              39.07624280600004
            ],
            [
              -123.700620185,
              39.07702040600003
            ],
            [
              -123.701207518,
              39.077020006000055
            ],
            [
              -123.70150131799994,
              39.07713420600004
            ],
            [
              -123.70173671799995,
              39.07754620600008
            ],
            [
              -123.70223611799997,
              39.07775180600004
            ]
          ]
        ]
      }
    },
    {
      "type": "Feature",
      "properties": {
        "OBJECTID": 1293589,
        "ID": 2664951,
        "Shape_Length": 0.03199161564024457
      },
      "geometry": {
        "type": "MultiLineString",
        "coordinates": [
          [
            [
              -123.663553918,
              39.05948300600005
            ],
            [
              -123.66399418499998,
              39.059482873000036
            ],
            [
              -123.66734111799997,
              39.05989367300003
            ],
            [
              -123.66883811799994,
              39.059733006000044
            ],
            [
              -123.67024711799996,
              39.059229006000066
            ],
            [
              -123.67127438499995,
              39.059137073000045
            ],
            [
              -123.67192038499996,
              39.059251206000056
            ],
            [
              -123.674152118,
              39.06016600600003
            ],
            [
              -123.67550258499995,
              39.06025687300007
            ],
            [
              -123.67702938499997,
              39.06059960600004
            ],
            [
              -123.67793971799995,
              39.06091960600003
            ],
            [
              -123.67849751799997,
              39.06094227300008
            ],
            [
              -123.67952491799997,
              39.060735873000056
            ],
            [
              -123.680933585,
              39.06023160600006
            ],
            [
              -123.68237198499997,
              39.06020820600003
            ],
            [
              -123.68310598499994,
              39.06011627300006
            ],
            [
              -123.68427991799996,
              39.059680806000074
            ],
            [
              -123.684895918,
              39.05915407300006
            ],
            [
              -123.68527751799996,
              39.05903947300004
            ],
            [
              -123.68783131799995,
              39.05887800600004
            ],
            [
              -123.68806618499997,
              39.05894647300005
            ],
            [
              -123.688360118,
              39.05926680600004
            ],
            [
              -123.68856598499997,
              39.05974727300003
            ],
            [
              -123.68903598499998,
              39.05997607300003
            ],
            [
              -123.68991638499995,
              39.059655073000044
            ],
            [
              -123.69018031799999,
              39.059426073000054
            ],
            [
              -123.690532185,
              39.05887660600007
            ],
            [
              -123.69094318499998,
              39.058853406000026
            ],
            [
              -123.69132491799996,
              39.058967806000055
            ],
            [
              -123.69173631799998,
              39.05935660600005
            ],
            [
              -123.692088518,
              39.05935640600006
            ],
            [
              -123.69276331799995,
              39.05892107300008
            ],
            [
              -123.693056518,
              39.05857767300006
            ],
            [
              -123.693261985,
              39.05844020600006
            ]
          ]
        ]
      }
    },
    {
      "type": "Feature",
      "properties": {
        "OBJECTID": 1293605,
        "ID": 2666173,
        "Shape_Length": 0.038011565193053376
      },
      "geometry": {
        "type": "MultiLineString",
        "coordinates": [
          [
            [
              -123.64962811899994,
              38.929540006000025
            ],
            [
              -123.65126951899998,
              38.93050087300003
            ],
            [
              -123.65191431899996,
              38.930798406000065
            ],
            [
              -123.653526119,
              38.93100400600008
            ],
            [
              -123.65548938499995,
              38.93095780600004
            ],
            [
              -123.65859598499998,
              38.93159780600007
            ],
            [
              -123.65938718499996,
              38.93152887300005
            ],
            [
              -123.66073491799995,
              38.93107067300008
            ],
            [
              -123.661467185,
              38.93049827300007
            ],
            [
              -123.66228758499994,
              38.93045227300007
            ],
            [
              -123.66343058499996,
              38.930680806000055
            ],
            [
              -123.66448591799997,
              38.93118400600008
            ],
            [
              -123.66498418499998,
              38.931344006000074
            ],
            [
              -123.66530658499994,
              38.93134387300006
            ],
            [
              -123.66571671799994,
              38.93118360600005
            ],
            [
              -123.66653678499995,
              38.93061100600005
            ],
            [
              -123.66767931799995,
              38.930152873000054
            ],
            [
              -123.66923198499995,
              38.929442806000054
            ],
            [
              -123.67013971799997,
              38.928549873000065
            ],
            [
              -123.67116531799996,
              38.928366406000066
            ],
            [
              -123.67183938499994,
              38.92850340600006
            ],
            [
              -123.67260118499996,
              38.92850320600007
            ],
            [
              -123.67324571799998,
              38.92825107300007
            ],
            [
              -123.674329318,
              38.92744960600004
            ],
            [
              -123.67538378499995,
              38.92685407300007
            ],
            [
              -123.67684851799999,
              38.92630407300004
            ],
            [
              -123.679192318,
              38.92591400600003
            ],
            [
              -123.68010038499995,
              38.92559307300007
            ],
            [
              -123.68109618499994,
              38.92506627300003
            ],
            [
              -123.681652585,
              38.924654006000026
            ],
            [
              -123.68215031799997,
              38.924104406000026
            ],
            [
              -123.68235511799998,
              38.923669473000075
            ],
            [
              -123.68253011799999,
              38.92289120600003
            ],
            [
              -123.68296931799995,
              38.92234160600003
            ],
            [
              -123.68358451799998,
              38.92213540600005
            ]
          ]
        ]
      }
    },
    {
      "type": "Feature",
      "properties": {
        "OBJECTID": 1293608,
        "ID": 2666193,
        "Shape_Length": 0.03075227772088131
      },
      "geometry": {
        "type": "MultiLineString",
        "coordinates": [
          [
            [
              -123.65577818499997,
              38.92166507300004
            ],
            [
              -123.65697918499995,
              38.92100100600004
            ],
            [
              -123.65779931799995,
              38.92035987300005
            ],
            [
              -123.65847291799997,
              38.91997067300008
            ],
            [
              -123.659586118,
              38.91946680600006
            ],
            [
              -123.66058211799998,
              38.919306273000075
            ],
            [
              -123.661812785,
              38.91923727300008
            ],
            [
              -123.66301378499998,
              38.919030873000054
            ],
            [
              -123.664097718,
              38.91868720600007
            ],
            [
              -123.66509371799998,
              38.918549606000056
            ],
            [
              -123.66603131799997,
              38.918572073000064
            ],
            [
              -123.66702771799999,
              38.91877780600004
            ],
            [
              -123.66822931799999,
              38.91925807300004
            ],
            [
              -123.66907931799994,
              38.91980700600004
            ],
            [
              -123.66992891799998,
              38.91982947300005
            ],
            [
              -123.67083691799996,
              38.91939440600004
            ],
            [
              -123.67162811799994,
              38.91946280600007
            ],
            [
              -123.67230178499995,
              38.91937087300005
            ],
            [
              -123.67326838499997,
              38.91900427300004
            ],
            [
              -123.67476238499995,
              38.91861460600006
            ],
            [
              -123.67543598499998,
              38.918156606000025
            ],
            [
              -123.67587551799994,
              38.918064806000075
            ],
            [
              -123.67678378499994,
              38.91815600600006
            ],
            [
              -123.67798478499998,
              38.91799527300003
            ],
            [
              -123.678600185,
              38.91815520600005
            ],
            [
              -123.67927498499995,
              38.919253473000026
            ],
            [
              -123.68027171799997,
              38.919985473000054
            ],
            [
              -123.68085818499998,
              38.92055740600006
            ],
            [
              -123.68244111799999,
              38.921472073000075
            ],
            [
              -123.683437718,
              38.92188360600005
            ],
            [
              -123.68358451799998,
              38.92213540600005
            ]
          ]
        ]
      }
    },
    {
      "type": "Feature",
      "properties": {
        "OBJECTID": 1293657,
        "ID": 2664551,
        "Shape_Length": 0.011298851606466348
      },
      "geometry": {
        "type": "MultiLineString",
        "coordinates": [
          [
            [
              -123.63285771899996,
              39.17076620600005
            ],
            [
              -123.63321051899999,
              39.170331273000045
            ],
            [
              -123.63350451899998,
              39.17017107300006
            ],
            [
              -123.63397478499996,
              39.17005660600006
            ],
            [
              -123.63644471899994,
              39.169758873000035
            ],
            [
              -123.63679738499997,
              39.16957580600007
            ],
            [
              -123.63697391899996,
              39.169049406000056
            ],
            [
              -123.63732658499998,
              39.168431406000025
            ],
            [
              -123.63779691899998,
              39.16806507300004
            ],
            [
              -123.63885518499995,
              39.167630073000055
            ],
            [
              -123.63929618499998,
              39.16724107300007
            ],
            [
              -123.641295185,
              39.16616507300006
            ],
            [
              -123.64226531899999,
              39.16582167300004
            ],
            [
              -123.64229471899995,
              39.165684406000025
            ]
          ]
        ]
      }
    },
    {
      "type": "Feature",
      "properties": {
        "OBJECTID": 1293672,
        "ID": 2664761,
        "Shape_Length": 0.016421572869441976
      },
      "geometry": {
        "type": "MultiLineString",
        "coordinates": [
          [
            [
              -123.68849178499994,
              39.10929820600006
            ],
            [
              -123.68996098499997,
              39.109709473000066
            ],
            [
              -123.69031358499996,
              39.10973220600005
            ],
            [
              -123.690812785,
              39.10952587300005
            ],
            [
              -123.69128278499994,
              39.10945700600007
            ],
            [
              -123.69228171799995,
              39.10954800600007
            ],
            [
              -123.69328078499996,
              39.10979920600005
            ],
            [
              -123.69536658499999,
              39.10982087300005
            ],
            [
              -123.69586591799998,
              39.10968327300003
            ],
            [
              -123.69612998499997,
              39.10943127300004
            ],
            [
              -123.69639391799996,
              39.108973406000075
            ],
            [
              -123.69739218499996,
              39.10840067300006
            ],
            [
              -123.69859618499999,
              39.10796500600003
            ],
            [
              -123.69953578499997,
              39.10755260600007
            ],
            [
              -123.69959438499995,
              39.10730080600007
            ],
            [
              -123.69988771799996,
              39.106980073000045
            ],
            [
              -123.70021078499997,
              39.10688840600005
            ],
            [
              -123.70117931799996,
              39.10590367300006
            ],
            [
              -123.70120811799995,
              39.10546880600003
            ],
            [
              -123.700237518,
              39.10434787300005
            ],
            [
              -123.70003191799998,
              39.10430227300003
            ]
          ]
        ]
      }
    },
    {
      "type": "Feature",
      "properties": {
        "OBJECTID": 1293673,
        "ID": 2664993,
        "Shape_Length": 0.01864507600041048
      },
      "geometry": {
        "type": "MultiLineString",
        "coordinates": [
          [
            [
              -123.67787338499994,
              39.05036860600006
            ],
            [
              -123.68007531799998,
              39.05096267300007
            ],
            [
              -123.68072111799995,
              39.05103107300005
            ],
            [
              -123.68174851799995,
              39.05098480600003
            ],
            [
              -123.68245291799997,
              39.05077847300004
            ],
            [
              -123.68383231799999,
              39.05068627300005
            ],
            [
              -123.68483018499995,
              39.050457006000045
            ],
            [
              -123.68547591799995,
              39.05047960600007
            ],
            [
              -123.68641538499998,
              39.050708006000036
            ],
            [
              -123.68811851799995,
              39.05146240600004
            ],
            [
              -123.68888231799997,
              39.05205707300007
            ],
            [
              -123.68923491799995,
              39.052446006000025
            ],
            [
              -123.68970471799997,
              39.05265167300007
            ],
            [
              -123.69032118499996,
              39.05274287300006
            ],
            [
              -123.69096751799998,
              39.05322307300003
            ],
            [
              -123.69214191799995,
              39.053565873000025
            ],
            [
              -123.69287658499996,
              39.05452680600007
            ],
            [
              -123.69311198499997,
              39.05505300600004
            ],
            [
              -123.69343511799997,
              39.05537320600007
            ],
            [
              -123.69390498499996,
              39.055533206000064
            ],
            [
              -123.69458018499995,
              39.05550987300006
            ]
          ]
        ]
      }
    },
    {
      "type": "Feature",
      "properties": {
        "OBJECTID": 1293676,
        "ID": 2665043,
        "Shape_Length": 0.007979814777295946
      },
      "geometry": {
        "type": "MultiLineString",
        "coordinates": [
          [
            [
              -123.68185358499994,
              39.034963606000076
            ],
            [
              -123.68314451799995,
              39.034642473000076
            ],
            [
              -123.68425958499995,
              39.034619073000044
            ],
            [
              -123.68596158499997,
              39.03420640600007
            ],
            [
              -123.68801571799997,
              39.03422820600008
            ],
            [
              -123.68898431799994,
              39.03438787300007
            ],
            [
              -123.68965891799996,
              39.034067073000074
            ]
          ]
        ]
      }
    },
    {
      "type": "Feature",
      "properties": {
        "OBJECTID": 1293686,
        "ID": 2665949,
        "Shape_Length": 0.0032038745405101343
      },
      "geometry": {
        "type": "MultiLineString",
        "coordinates": [
          [
            [
              -123.64446131899996,
              38.994291006000026
            ],
            [
              -123.645018919,
              38.99495480600007
            ],
            [
              -123.64698431899996,
              38.99591560600004
            ],
            [
              -123.64704298499998,
              38.99605287300005
            ]
          ]
        ]
      }
    },
    {
      "type": "Feature",
      "properties": {
        "OBJECTID": 1293690,
        "ID": 2666017,
        "Shape_Length": 0.0051384243304900224
      },
      "geometry": {
        "type": "MultiLineString",
        "coordinates": [
          [
            [
              -123.67228211799994,
              38.97503447300005
            ],
            [
              -123.67310331799996,
              38.97530900600003
            ],
            [
              -123.67351378499995,
              38.975331606000054
            ],
            [
              -123.67395351799996,
              38.97514827300006
            ],
            [
              -123.67433438499995,
              38.974827806000064
            ],
            [
              -123.67456871799999,
              38.97441567300007
            ],
            [
              -123.67480278499994,
              38.973660273000064
            ],
            [
              -123.67503731799997,
              38.97343140600003
            ],
            [
              -123.67609238499995,
              38.97297307300005
            ],
            [
              -123.67618031799998,
              38.972858606000045
            ]
          ]
        ]
      }
    },
    {
      "type": "Feature",
      "properties": {
        "OBJECTID": 1293698,
        "ID": 2666079,
        "Shape_Length": 0.004685501875082897
      },
      "geometry": {
        "type": "MultiLineString",
        "coordinates": [
          [
            [
              -123.64635151899995,
              38.94608867300008
            ],
            [
              -123.64705491899997,
              38.946020006000026
            ],
            [
              -123.64746518499999,
              38.945699406000074
            ],
            [
              -123.64772898499996,
              38.94574507300007
            ],
            [
              -123.64846211899999,
              38.94643167300006
            ],
            [
              -123.64857938499995,
              38.946683406000034
            ],
            [
              -123.64969371899997,
              38.94791907300004
            ],
            [
              -123.64992818499996,
              38.94798767300006
            ]
          ]
        ]
      }
    }
  ]
}
