{
  "type": "FeatureCollection",
  "name": "pacific_poly",
  "crs": {
    "type": "name",
    "properties": {
      "name": "urn:ogc:def:crs:OGC:1.3:CRS84"
    }
  },
  "features": [
    {
      "type": "Feature",
      "properties": {},
      "geometry": {
        "type": "Polygon",
        "coordinates": [
          [
            [
              -123.81431055292751,
              39.26697471493428
            ],
            [
              -123.78336787412333,
              39.28907662836583
            ],
            [
              -123.70925120127288,
              39.243648923173076
            ],
            [
              -123.63714072780873,
              39.160721878689294
            ],
            [
              -123.61550758576948,
              39.01890461420979
            ],
            [
              -123.62123118270928,
              38.85658976876396
            ],
            [
              -123.67214112200875,
              38.81915598986729
            ],
            [
              -123.7874371610105,
              38.82664274564662
            ],
            [
              -123.85631531418038,
              39.13659443491106
            ],
            [
              -123.81431055292751,
              39.26697471493428
            ]
          ]
        ]
      }
    }
  ]
}
